[
    {
        "Altitude(m)": 711128.468174062,
        "Argument of Periapsis(deg)": 0.006834072711976239,
        "Eccentricity": 0.0,
        "Inclination(deg)": 45.0,
        "Latitude(deg)": -28.511047090268303,
        "Longitude(deg)": -38.155197967974786,
        "Mean Anomaly(deg)": -42.17097001151147,
        "RAAN(deg)": 94.99354883512508,
        "Satellite Name": "Constellation 1 437",
        "Satellite Number": 437,
        "Semi-Major Axis(m)": 7083131.272910544,
        "Time(s)": 114
    },
    {
        "Altitude(m)": 711114.6556287166,
        "Argument of Periapsis(deg)": 0.006894020718221645,
        "Eccentricity": 0.0,
        "Inclination(deg)": 45.0,
        "Latitude(deg)": -28.474810331135156,
        "Longitude(deg)": -38.10399827493081,
        "Mean Anomaly(deg)": -42.11026887126157,
        "RAAN(deg)": 94.99349224595952,
        "Satellite Name": "Constellation 1 437",
        "Satellite Number": 437,
        "Semi-Major Axis(m)": 7083131.272910544,
        "Time(s)": 115
    },
    {
        "Altitude(m)": 711100.8410629551,
        "Argument of Periapsis(deg)": 0.006953968724467052,
        "Eccentricity": 0.0,
        "Inclination(deg)": 45.0,
        "Latitude(deg)": -28.438550826909317,
        "Longitude(deg)": -38.0528361809603,
        "Mean Anomaly(deg)": -42.0495677310116,
        "RAAN(deg)": 94.99343565679393,
        "Satellite Name": "Constellation 1 437",
        "Satellite Number": 437,
        "Semi-Major Axis(m)": 7083131.272910544,
        "Time(s)": 116
    },
    {
        "Altitude(m)": 711087.0245248204,
        "Argument of Periapsis(deg)": 0.007013916730712457,
        "Eccentricity": 0.0,
        "Inclination(deg)": 45.0,
        "Latitude(deg)": -28.40226862635792,
        "Longitude(deg)": -38.001711627001335,
        "Mean Anomaly(deg)": -41.98886659076174,
        "RAAN(deg)": 94.99337906762838,
        "Satellite Name": "Constellation 1 437",
        "Satellite Number": 437,
        "Semi-Major Axis(m)": 7083131.272910544,
        "Time(s)": 117
    },
    {
        "Altitude(m)": 711073.2060623365,
        "Argument of Periapsis(deg)": 0.007073864736957864,
        "Eccentricity": 0.0,
        "Inclination(deg)": 45.0,
        "Latitude(deg)": -28.365963778178415,
        "Longitude(deg)": -37.95062455395979,
        "Mean Anomaly(deg)": -41.92816545051188,
        "RAAN(deg)": 94.99332247846282,
        "Satellite Name": "Constellation 1 437",
        "Satellite Number": 437,
        "Semi-Major Axis(m)": 7083131.272910544,
        "Time(s)": 118
    },
    {
        "Altitude(m)": 711059.3857235248,
        "Argument of Periapsis(deg)": 0.0071338127432032696,
        "Eccentricity": 0.0,
        "Inclination(deg)": 45.0,
        "Latitude(deg)": -28.329636330999016,
        "Longitude(deg)": -37.899575070807145,
        "Mean Anomaly(deg)": -41.86746431026198,
        "RAAN(deg)": 94.99326588929723,
        "Satellite Name": "Constellation 1 437",
        "Satellite Number": 437,
        "Semi-Major Axis(m)": 7083131.272910544,
        "Time(s)": 119
    },
    {
        "Altitude(m)": 711045.5635564137,
        "Argument of Periapsis(deg)": 0.007193760749448674,
        "Eccentricity": 0.0,
        "Inclination(deg)": 45.0,
        "Latitude(deg)": -28.293286333377697,
        "Longitude(deg)": -37.84856278219244,
        "Mean Anomaly(deg)": -41.80676317001201,
        "RAAN(deg)": 94.99320930013167,
        "Satellite Name": "Constellation 1 437",
        "Satellite Number": 437,
        "Semi-Major Axis(m)": 7083131.272910544,
        "Time(s)": 120
    },
    {
        "Altitude(m)": 711031.7396090192,
        "Argument of Periapsis(deg)": 0.007253708755694079,
        "Eccentricity": 0.0,
        "Inclination(deg)": 45.0,
        "Latitude(deg)": -28.256913833803925,
        "Longitude(deg)": -37.797587797025955,
        "Mean Anomaly(deg)": -41.7460620297622,
        "RAAN(deg)": 94.99315271096609,
        "Satellite Name": "Constellation 1 437",
        "Satellite Number": 437,
        "Semi-Major Axis(m)": 7083131.272910544,
        "Time(s)": 121
    },
    {
        "Altitude(m)": 711017.9139293503,
        "Argument of Periapsis(deg)": 0.0073136567619394854,
        "Eccentricity": 0.0,
        "Inclination(deg)": 45.0,
        "Latitude(deg)": -28.220518880697288,
        "Longitude(deg)": -37.74665005609034,
        "Mean Anomaly(deg)": -41.68536088951229,
        "RAAN(deg)": 94.99309612180052,
        "Satellite Name": "Constellation 1 437",
        "Satellite Number": 437,
        "Semi-Major Axis(m)": 7083131.272910544,
        "Time(s)": 122
    },
    {
        "Altitude(m)": 711004.08656542,
        "Argument of Periapsis(deg)": 0.0073736047681848904,
        "Eccentricity": 0.0,
        "Inclination(deg)": 45.0,
        "Latitude(deg)": -28.18410152240832,
        "Longitude(deg)": -37.695749500139186,
        "Mean Anomaly(deg)": -41.624659749262385,
        "RAAN(deg)": 94.99303953263497,
        "Satellite Name": "Constellation 1 437",
        "Satellite Number": 437,
        "Semi-Major Axis(m)": 7083131.272910544,
        "Time(s)": 123
    },
    {
        "Altitude(m)": 710990.2575652318,
        "Argument of Periapsis(deg)": 0.007433552774430298,
        "Eccentricity": 0.0,
        "Inclination(deg)": 45.0,
        "Latitude(deg)": -28.147661807218256,
        "Longitude(deg)": -37.64488606989694,
        "Mean Anomaly(deg)": -41.563958609012424,
        "RAAN(deg)": 94.99298294346939,
        "Satellite Name": "Constellation 1 437",
        "Satellite Number": 437,
        "Semi-Major Axis(m)": 7083131.272910544,
        "Time(s)": 124
    },
    {
        "Altitude(m)": 710976.4269767832,
        "Argument of Periapsis(deg)": 0.007493500780675703,
        "Eccentricity": 0.0,
        "Inclination(deg)": 45.0,
        "Latitude(deg)": -28.111199783339305,
        "Longitude(deg)": -37.59405970605996,
        "Mean Anomaly(deg)": -41.503257468762556,
        "RAAN(deg)": 94.99292635430382,
        "Satellite Name": "Constellation 1 437",
        "Satellite Number": 437,
        "Semi-Major Axis(m)": 7083131.272910544,
        "Time(s)": 125
    },
    {
        "Altitude(m)": 710962.5948480725,
        "Argument of Periapsis(deg)": 0.007553448786921108,
        "Eccentricity": 0.0,
        "Inclination(deg)": 45.0,
        "Latitude(deg)": -28.074715498914685,
        "Longitude(deg)": -37.543270517393424,
        "Mean Anomaly(deg)": -41.442556328512694,
        "RAAN(deg)": 94.99286976513824,
        "Satellite Name": "Constellation 1 437",
        "Satellite Number": 437,
        "Semi-Major Axis(m)": 7083131.272910544,
        "Time(s)": 126
    },
    {
        "Altitude(m)": 710948.7612270864,
        "Argument of Periapsis(deg)": 0.007613396793166514,
        "Eccentricity": 0.0,
        "Inclination(deg)": 45.0,
        "Latitude(deg)": -28.0382090020179,
        "Longitude(deg)": -37.49251810834372,
        "Mean Anomaly(deg)": -41.38185518826275,
        "RAAN(deg)": 94.99281317597269,
        "Satellite Name": "Constellation 1 437",
        "Satellite Number": 437,
        "Semi-Major Axis(m)": 7083131.272910544,
        "Time(s)": 127
    },
    {
        "Altitude(m)": 710934.9261618048,
        "Argument of Periapsis(deg)": 0.007673344799411918,
        "Eccentricity": 0.0,
        "Inclination(deg)": 45.0,
        "Latitude(deg)": -28.001680340654378,
        "Longitude(deg)": -37.441802587622014,
        "Mean Anomaly(deg)": -41.321154048012886,
        "RAAN(deg)": 94.99275658680712,
        "Satellite Name": "Constellation 1 437",
        "Satellite Number": 437,
        "Semi-Major Axis(m)": 7083131.272910544,
        "Time(s)": 128
    },
    {
        "Altitude(m)": 710921.08970021,
        "Argument of Periapsis(deg)": 0.007733292805657325,
        "Eccentricity": 0.0,
        "Inclination(deg)": 45.0,
        "Latitude(deg)": -27.96512956276024,
        "Longitude(deg)": -37.391123895815646,
        "Mean Anomaly(deg)": -41.260452907762975,
        "RAAN(deg)": 94.99269999764154,
        "Satellite Name": "Constellation 1 437",
        "Satellite Number": 437,
        "Semi-Major Axis(m)": 7083131.272910544,
        "Time(s)": 129
    },
    {
        "Altitude(m)": 710907.2518902739,
        "Argument of Periapsis(deg)": 0.00779324081190273,
        "Eccentricity": 0.0,
        "Inclination(deg)": 45.0,
        "Latitude(deg)": -27.928556716202934,
        "Longitude(deg)": -37.34048197348604,
        "Mean Anomaly(deg)": -41.19975176751306,
        "RAAN(deg)": 94.99264340847597,
        "Satellite Name": "Constellation 1 437",
        "Satellite Number": 437,
        "Semi-Major Axis(m)": 7083131.272910544,
        "Time(s)": 130
    },
    {
        "Altitude(m)": 710893.4127799538,
        "Argument of Periapsis(deg)": 0.007853188818148135,
        "Eccentricity": 0.0,
        "Inclination(deg)": 45.0,
        "Latitude(deg)": -27.891961848781115,
        "Longitude(deg)": -37.28987676116942,
        "Mean Anomaly(deg)": -41.13905062726316,
        "RAAN(deg)": 94.99258681931042,
        "Satellite Name": "Constellation 1 437",
        "Satellite Number": 437,
        "Semi-Major Axis(m)": 7083131.272910544,
        "Time(s)": 131
    },
    {
        "Altitude(m)": 710879.5724172255,
        "Argument of Periapsis(deg)": 0.007913136824393542,
        "Eccentricity": 0.0,
        "Inclination(deg)": 45.0,
        "Latitude(deg)": -27.85534500822476,
        "Longitude(deg)": -37.23930819937683,
        "Mean Anomaly(deg)": -41.07834948701324,
        "RAAN(deg)": 94.99253023014484,
        "Satellite Name": "Constellation 1 437",
        "Satellite Number": 437,
        "Semi-Major Axis(m)": 7083131.272910544,
        "Time(s)": 132
    }
]